DELTA 2 R/B(1)          
1 20453U 90008B   26058.87412213  .00075334  00000+0  92687-3 0  9996
2 20453  35.6026 239.2014 0087528 167.5864 192.7052 15.54459579924607
COSMOS 2058             
1 20465U 90010A   26058.98128766  .00004355  00000+0  25732-3 0  9993
2 20465  82.4664  56.9926 0010062  15.7156 344.4385 15.11218717940772
SL-14 R/B               
1 20466U 90010B   26058.09775417  .00000403  00000+0  45910-4 0  9998
2 20466  82.4996 277.3404 0019252 339.1012  20.9414 14.83558405926913
SL-14 R/B               
1 20511U 90018B   26058.91553670  .00000543  00000+0  65120-4 0  9993
2 20511  82.5188 232.2265 0017499 121.6638 238.6286 14.82132043921131
HST                     
1 20580U 90037B   26058.43688827  .00007990  00000+0  26528-3 0  9991
2 20580  28.4696 109.9319 0001432  20.1888 339.8764 15.29295817771746
SL-16 R/B               
1 20625U 90046B   26058.94173213 -.00000102  00000+0 -28023-4 0  9998
2 20625  71.0010 318.3868 0015982 312.8182  47.1596 14.15015302847017
COSMOS 2084             
1 20663U 90055A   26058.95880499  .00003187  00000+0  23321-3 0  9991
2 20663  62.7912   8.7633 0018597 187.6760 172.4059 15.05578814934859
SL-6 R/B(2)             
1 20666U 90055D   26058.92818866  .00002100  00000+0  16685-3 0  9999
2 20666  62.7825 287.0464 0023225 344.5574  15.4814 15.03540908936724
SL-8 R/B                
1 20775U 90078B   26058.83092841  .00015337  00000+0  45009-3 0  9990
2 20775  82.8998 260.1763 0364563  47.0845 316.0359 14.88684110807831
SL-8 R/B                
1 21088U 91006B   26058.82918438  .00000042  00000+0  26460-4 0  9996
2 21088  82.9462 177.3758 0023560  64.8645  49.7833 13.77493038762711
OKEAN-3                 
1 21397U 91039A   26058.83739879  .00003208  00000+0  22542-3 0  9999
2 21397  82.5200 346.3856 0014587  12.2507 347.9071 15.04722336863559
COSMOS 2151             
1 21422U 91042A   26058.87774440  .00001587  00000+0  12508-3 0  9998
2 21422  82.4934  93.1433 0014147  92.9278 267.3565 15.00060194861724
