CCSDS_OMM_VERS = 2.0
CREATION_DATE  = 
ORIGINATOR     = 

OBJECT_NAME    = DELTA 2 R/B(1)
OBJECT_ID      = 1990-008B
CENTER_NAME    = EARTH
REF_FRAME      = TEME
TIME_SYSTEM    = UTC
MEAN_ELEMENT_THEORY = SGP/SGP4

EPOCH          = 2026-02-27T20:58:44.152032
MEAN_MOTION    = 15.54459579
ECCENTRICITY   = .00875286
INCLINATION    = 35.6026
RA_OF_ASC_NODE = 239.2014
ARG_OF_PERICENTER = 167.5864
MEAN_ANOMALY   = 192.7052

EPHEMERIS_TYPE = 0
CLASSIFICATION_TYPE = U
NORAD_CAT_ID   = 20453
ELEMENT_SET_NO = 999
REV_AT_EPOCH   = 92460
BSTAR          = .92687074E-3
MEAN_MOTION_DOT = .75334E-3
MEAN_MOTION_DDOT = 0

CCSDS_OMM_VERS = 2.0
CREATION_DATE  = 
ORIGINATOR     = 

OBJECT_NAME    = COSMOS 2058
OBJECT_ID      = 1990-010A
CENTER_NAME    = EARTH
REF_FRAME      = TEME
TIME_SYSTEM    = UTC
MEAN_ELEMENT_THEORY = SGP/SGP4

EPOCH          = 2026-02-27T23:33:03.253824
MEAN_MOTION    = 15.11218717
ECCENTRICITY   = .00100622
INCLINATION    = 82.4664
RA_OF_ASC_NODE = 56.9926
ARG_OF_PERICENTER = 15.7156
MEAN_ANOMALY   = 344.4385

EPHEMERIS_TYPE = 0
CLASSIFICATION_TYPE = U
NORAD_CAT_ID   = 20465
ELEMENT_SET_NO = 999
REV_AT_EPOCH   = 94077
BSTAR          = .2573216E-3
MEAN_MOTION_DOT = .4355E-4
MEAN_MOTION_DDOT = 0

CCSDS_OMM_VERS = 2.0
CREATION_DATE  = 
ORIGINATOR     = 

OBJECT_NAME    = SL-14 R/B
OBJECT_ID      = 1990-010B
CENTER_NAME    = EARTH
REF_FRAME      = TEME
TIME_SYSTEM    = UTC
MEAN_ELEMENT_THEORY = SGP/SGP4

EPOCH          = 2026-02-27T02:20:45.960288
MEAN_MOTION    = 14.83558405
ECCENTRICITY   = .00192528
INCLINATION    = 82.4996
RA_OF_ASC_NODE = 277.3404
ARG_OF_PERICENTER = 339.1012
MEAN_ANOMALY   = 20.9414

EPHEMERIS_TYPE = 0
CLASSIFICATION_TYPE = U
NORAD_CAT_ID   = 20466
ELEMENT_SET_NO = 999
REV_AT_EPOCH   = 92691
BSTAR          = .45909683E-4
MEAN_MOTION_DOT = .403E-5
MEAN_MOTION_DDOT = 0

CCSDS_OMM_VERS = 2.0
CREATION_DATE  = 
ORIGINATOR     = 

OBJECT_NAME    = SL-14 R/B
OBJECT_ID      = 1990-018B
CENTER_NAME    = EARTH
REF_FRAME      = TEME
TIME_SYSTEM    = UTC
MEAN_ELEMENT_THEORY = SGP/SGP4

EPOCH          = 2026-02-27T21:58:22.370880
MEAN_MOTION    = 14.82132043
ECCENTRICITY   = .00174997
INCLINATION    = 82.5188
RA_OF_ASC_NODE = 232.2265
ARG_OF_PERICENTER = 121.6638
MEAN_ANOMALY   = 238.6286

EPHEMERIS_TYPE = 0
CLASSIFICATION_TYPE = U
NORAD_CAT_ID   = 20511
ELEMENT_SET_NO = 999
REV_AT_EPOCH   = 92113
BSTAR          = .65120025E-4
MEAN_MOTION_DOT = .543E-5
MEAN_MOTION_DDOT = 0

CCSDS_OMM_VERS = 2.0
CREATION_DATE  = 
ORIGINATOR     = 

OBJECT_NAME    = HST
OBJECT_ID      = 1990-037B
CENTER_NAME    = EARTH
REF_FRAME      = TEME
TIME_SYSTEM    = UTC
MEAN_ELEMENT_THEORY = SGP/SGP4

EPOCH          = 2026-02-27T10:29:07.146528
MEAN_MOTION    = 15.29295817
ECCENTRICITY   = .00014322
INCLINATION    = 28.4696
RA_OF_ASC_NODE = 109.9319
ARG_OF_PERICENTER = 20.1888
MEAN_ANOMALY   = 339.8764

EPHEMERIS_TYPE = 0
CLASSIFICATION_TYPE = U
NORAD_CAT_ID   = 20580
ELEMENT_SET_NO = 999
REV_AT_EPOCH   = 77174
BSTAR          = .26528101E-3
MEAN_MOTION_DOT = .799E-4
MEAN_MOTION_DDOT = 0

CCSDS_OMM_VERS = 2.0
CREATION_DATE  = 
ORIGINATOR     = 

OBJECT_NAME    = SL-16 R/B
OBJECT_ID      = 1990-046B
CENTER_NAME    = EARTH
REF_FRAME      = TEME
TIME_SYSTEM    = UTC
MEAN_ELEMENT_THEORY = SGP/SGP4

EPOCH          = 2026-02-27T22:36:05.656032
MEAN_MOTION    = 14.15015302
ECCENTRICITY   = .00159821
INCLINATION    = 71.0010
RA_OF_ASC_NODE = 318.3868
ARG_OF_PERICENTER = 312.8182
MEAN_ANOMALY   = 47.1596

EPHEMERIS_TYPE = 0
CLASSIFICATION_TYPE = U
NORAD_CAT_ID   = 20625
ELEMENT_SET_NO = 999
REV_AT_EPOCH   = 84701
BSTAR          = -.28022576E-4
MEAN_MOTION_DOT = -.102E-5
MEAN_MOTION_DDOT = 0

CCSDS_OMM_VERS = 2.0
CREATION_DATE  = 
ORIGINATOR     = 

OBJECT_NAME    = COSMOS 2084
OBJECT_ID      = 1990-055A
CENTER_NAME    = EARTH
REF_FRAME      = TEME
TIME_SYSTEM    = UTC
MEAN_ELEMENT_THEORY = SGP/SGP4

EPOCH          = 2026-02-27T23:00:40.751136
MEAN_MOTION    = 15.05578814
ECCENTRICITY   = .0018597
INCLINATION    = 62.7912
RA_OF_ASC_NODE = 8.7633
ARG_OF_PERICENTER = 187.6760
MEAN_ANOMALY   = 172.4059

EPHEMERIS_TYPE = 0
CLASSIFICATION_TYPE = U
NORAD_CAT_ID   = 20663
ELEMENT_SET_NO = 999
REV_AT_EPOCH   = 93485
BSTAR          = .23320598E-3
MEAN_MOTION_DOT = .3187E-4
MEAN_MOTION_DDOT = 0

CCSDS_OMM_VERS = 2.0
CREATION_DATE  = 
ORIGINATOR     = 

OBJECT_NAME    = SL-6 R/B(2)
OBJECT_ID      = 1990-055D
CENTER_NAME    = EARTH
REF_FRAME      = TEME
TIME_SYSTEM    = UTC
MEAN_ELEMENT_THEORY = SGP/SGP4

EPOCH          = 2026-02-27T22:16:35.500224
MEAN_MOTION    = 15.03540908
ECCENTRICITY   = .00232256
INCLINATION    = 62.7825
RA_OF_ASC_NODE = 287.0464
ARG_OF_PERICENTER = 344.5574
MEAN_ANOMALY   = 15.4814

EPHEMERIS_TYPE = 0
CLASSIFICATION_TYPE = U
NORAD_CAT_ID   = 20666
ELEMENT_SET_NO = 999
REV_AT_EPOCH   = 93672
BSTAR          = .16685267E-3
MEAN_MOTION_DOT = .21E-4
MEAN_MOTION_DDOT = 0

CCSDS_OMM_VERS = 2.0
CREATION_DATE  = 
ORIGINATOR     = 

OBJECT_NAME    = SL-8 R/B
OBJECT_ID      = 1990-078B
CENTER_NAME    = EARTH
REF_FRAME      = TEME
TIME_SYSTEM    = UTC
MEAN_ELEMENT_THEORY = SGP/SGP4

EPOCH          = 2026-02-27T19:56:32.214624
MEAN_MOTION    = 14.88684110
ECCENTRICITY   = .03645639
INCLINATION    = 82.8998
RA_OF_ASC_NODE = 260.1763
ARG_OF_PERICENTER = 47.0845
MEAN_ANOMALY   = 316.0359

EPHEMERIS_TYPE = 0
CLASSIFICATION_TYPE = U
NORAD_CAT_ID   = 20775
ELEMENT_SET_NO = 999
REV_AT_EPOCH   = 80783
BSTAR          = .45009009E-3
MEAN_MOTION_DOT = .15337E-3
MEAN_MOTION_DDOT = 0

CCSDS_OMM_VERS = 2.0
CREATION_DATE  = 
ORIGINATOR     = 

OBJECT_NAME    = SL-8 R/B
OBJECT_ID      = 1991-006B
CENTER_NAME    = EARTH
REF_FRAME      = TEME
TIME_SYSTEM    = UTC
MEAN_ELEMENT_THEORY = SGP/SGP4

EPOCH          = 2026-02-27T19:54:01.530432
MEAN_MOTION    = 13.77493038
ECCENTRICITY   = .00235601
INCLINATION    = 82.9462
RA_OF_ASC_NODE = 177.3758
ARG_OF_PERICENTER = 64.8645
MEAN_ANOMALY   = 49.7833

EPHEMERIS_TYPE = 0
CLASSIFICATION_TYPE = U
NORAD_CAT_ID   = 21088
ELEMENT_SET_NO = 999
REV_AT_EPOCH   = 76271
BSTAR          = .26460484E-4
MEAN_MOTION_DOT = .42E-6
MEAN_MOTION_DDOT = 0

CCSDS_OMM_VERS = 2.0
CREATION_DATE  = 
ORIGINATOR     = 

OBJECT_NAME    = OKEAN-3
OBJECT_ID      = 1991-039A
CENTER_NAME    = EARTH
REF_FRAME      = TEME
TIME_SYSTEM    = UTC
MEAN_ELEMENT_THEORY = SGP/SGP4

EPOCH          = 2026-02-27T20:05:51.255456
MEAN_MOTION    = 15.04722336
ECCENTRICITY   = .00145872
INCLINATION    = 82.5200
RA_OF_ASC_NODE = 346.3856
ARG_OF_PERICENTER = 12.2507
MEAN_ANOMALY   = 347.9071

EPHEMERIS_TYPE = 0
CLASSIFICATION_TYPE = U
NORAD_CAT_ID   = 21397
ELEMENT_SET_NO = 999
REV_AT_EPOCH   = 86355
BSTAR          = .22542024E-3
MEAN_MOTION_DOT = .3208E-4
MEAN_MOTION_DDOT = 0

CCSDS_OMM_VERS = 2.0
CREATION_DATE  = 
ORIGINATOR     = 

OBJECT_NAME    = COSMOS 2151
OBJECT_ID      = 1991-042A
CENTER_NAME    = EARTH
REF_FRAME      = TEME
TIME_SYSTEM    = UTC
MEAN_ELEMENT_THEORY = SGP/SGP4

EPOCH          = 2026-02-27T21:03:57.116160
MEAN_MOTION    = 15.00060194
ECCENTRICITY   = .0014147
INCLINATION    = 82.4934
RA_OF_ASC_NODE = 93.1433
ARG_OF_PERICENTER = 92.9278
MEAN_ANOMALY   = 267.3565

EPHEMERIS_TYPE = 0
CLASSIFICATION_TYPE = U
NORAD_CAT_ID   = 21422
ELEMENT_SET_NO = 999
REV_AT_EPOCH   = 86172
BSTAR          = .12508214E-3
MEAN_MOTION_DOT = .1587E-4
MEAN_MOTION_DDOT = 0

